[{"OBJECT_NAME":"STARLINK-30364","OBJECT_ID":"2023-131K","EPOCH":"2026-03-09T22:00:01.999584","MEAN_MOTION":15.13370424,"ECCENTRICITY":0.00014253,"INCLINATION":42.9989,"RA_OF_ASC_NODE":170.2642,"ARG_OF_PERICENTER":274.0474,"MEAN_ANOMALY":17.4063,"EPHEMERIS_TYPE":0,"CLASSIFICATION_TYPE":"U","NORAD_CAT_ID":57741,"ELEMENT_SET_NO":999,"REV_AT_EPOCH":557,"BSTAR":0.070301336,"MEAN_MOTION_DOT":0.01392179,"MEAN_MOTION_DDOT":0},{"OBJECT_NAME":"KUIPER-00199","OBJECT_ID":"2026-030H","EPOCH":"2026-03-09T20:22:54.746400","MEAN_MOTION":15.34402964,"ECCENTRICITY":0.00108419,"INCLINATION":51.8811,"RA_OF_ASC_NODE":218.632,"ARG_OF_PERICENTER":59.662,"MEAN_ANOMALY":300.5437,"EPHEMERIS_TYPE":0,"CLASSIFICATION_TYPE":"U","NORAD_CAT_ID":67771,"ELEMENT_SET_NO":999,"REV_AT_EPOCH":511,"BSTAR":0.0010339616,"MEAN_MOTION_DOT":0.00034812,"MEAN_MOTION_DDOT":0}]
